{
  "type": "FeatureCollection",
  "features": [
    {
      "type": "Feature",
      "properties": {
        "norad_id": 30331,
        "name": "FENGYUN 1C DEB",
        "group": "fengyun-1c-debris",
        "lat": 28.79334051110198,
        "lon": -163.62402071194384,
        "alt_km": 928.9724993362079,
        "timestamp": "2025-12-02T13:52:17.537808+00:00",
        "meta_object_name": "FENGYUN 1C DEB",
        "meta_object_id": "1999-025AAS",
        "meta_epoch": "2025-12-02T01:26:05.685792",
        "meta_mean_motion": 13.97810055,
        "meta_eccentricity": 0.00971456,
        "meta_inclination": 98.9584,
        "meta_ra_of_asc_node": 10.897,
        "meta_arg_of_pericenter": 37.4233,
        "meta_mean_anomaly": 26.1043,
        "meta_ephemeris_type": 0,
        "meta_classification_type": "U",
        "meta_norad_cat_id": 30331,
        "meta_element_set_no": 999,
        "meta_rev_at_epoch": 95970,
        "meta_bstar": 0.0005450956,
        "meta_mean_motion_dot": 7.6e-06,
        "meta_mean_motion_ddot": 0,
        "tle_line1": "1 30331U 99025AAS 25336.05978803  .00000760  00000+0  54510-3 0  9994",
        "tle_line2": "2 30331  98.9584  10.8970 0097145  37.4233  26.1043 13.97810055959703"
      },
      "geometry": {
        "type": "Point",
        "coordinates": [
          -163.62402071194384,
          28.79334051110198
        ]
      }
    },
    {
      "type": "Feature",
      "properties": {
        "norad_id": 30332,
        "name": "FENGYUN 1C DEB",
        "group": "fengyun-1c-debris",
        "lat": -44.07438453336289,
        "lon": 118.34093454059442,
        "alt_km": 992.4262674014399,
        "timestamp": "2025-12-02T13:52:17.537819+00:00",
        "meta_object_name": "FENGYUN 1C DEB",
        "meta_object_id": "1999-025AAT",
        "meta_epoch": "2025-12-01T21:22:05.686176",
        "meta_mean_motion": 13.76695621,
        "meta_eccentricity": 0.01779066,
        "meta_inclination": 99.714,
        "meta_ra_of_asc_node": 307.1852,
        "meta_arg_of_pericenter": 131.0925,
        "meta_mean_anomaly": 285.4604,
        "meta_ephemeris_type": 0,
        "meta_classification_type": "U",
        "meta_norad_cat_id": 30332,
        "meta_element_set_no": 999,
        "meta_rev_at_epoch": 94566,
        "meta_bstar": 0.00041755621,
        "meta_mean_motion_dot": 4.15e-06,
        "meta_mean_motion_ddot": 0,
        "tle_line1": "1 30332U 99025AAT 25335.89034359  .00000415  00000+0  41756-3 0  9990",
        "tle_line2": "2 30332  99.7140 307.1852 0177906 131.0925 285.4604 13.76695621945665"
      },
      "geometry": {
        "type": "Point",
        "coordinates": [
          118.34093454059442,
          -44.07438453336289
        ]
      }
    },
    {
      "type": "Feature",
      "properties": {
        "norad_id": 30334,
        "name": "FENGYUN 1C DEB",
        "group": "fengyun-1c-debris",
        "lat": -39.29937035692514,
        "lon": 83.89322874058509,
        "alt_km": 857.6585642833625,
        "timestamp": "2025-12-02T13:52:17.537829+00:00",
        "meta_object_name": "FENGYUN 1C DEB",
        "meta_object_id": "1999-025AAV",
        "meta_epoch": "2025-12-02T05:34:13.035648",
        "meta_mean_motion": 13.92325375,
        "meta_eccentricity": 0.01448834,
        "meta_inclination": 99.0216,
        "meta_ra_of_asc_node": 76.0851,
        "meta_arg_of_pericenter": 10.8929,
        "meta_mean_anomaly": 17.8066,
        "meta_ephemeris_type": 0,
        "meta_classification_type": "U",
        "meta_norad_cat_id": 30334,
        "meta_element_set_no": 999,
        "meta_rev_at_epoch": 95075,
        "meta_bstar": 0.0014213414,
        "meta_mean_motion_dot": 1.946e-05,
        "meta_mean_motion_ddot": 0,
        "tle_line1": "1 30334U 99025AAV 25336.23209532  .00001946  00000+0  14213-2 0  9995",
        "tle_line2": "2 30334  99.0216  76.0851 0144883  10.8929  17.8066 13.92325375950750"
      },
      "geometry": {
        "type": "Point",
        "coordinates": [
          83.89322874058509,
          -39.29937035692514
        ]
      }
    },
    {
      "type": "Feature",
      "properties": {
        "norad_id": 30335,
        "name": "FENGYUN 1C DEB",
        "group": "fengyun-1c-debris",
        "lat": -23.24250112807493,
        "lon": 144.25942378415152,
        "alt_km": 824.1662570991539,
        "timestamp": "2025-12-02T13:52:17.537839+00:00",
        "meta_object_name": "FENGYUN 1C DEB",
        "meta_object_id": "1999-025AAW",
        "meta_epoch": "2025-12-02T06:08:19.710816",
        "meta_mean_motion": 14.01354762,
        "meta_eccentricity": 0.01323735,
        "meta_inclination": 98.9048,
        "meta_ra_of_asc_node": 327.8059,
        "meta_arg_of_pericenter": 160.7504,
        "meta_mean_anomaly": 217.0933,
        "meta_ephemeris_type": 0,
        "meta_classification_type": "U",
        "meta_norad_cat_id": 30335,
        "meta_element_set_no": 999,
        "meta_rev_at_epoch": 96444,
        "meta_bstar": 0.00019969377,
        "meta_mean_motion_dot": 2.82e-06,
        "meta_mean_motion_ddot": 0,
        "tle_line1": "1 30335U 99025AAW 25336.25578369  .00000282  00000+0  19969-3 0  9991",
        "tle_line2": "2 30335  98.9048 327.8059 0132373 160.7504 217.0933 14.01354762964445"
      },
      "geometry": {
        "type": "Point",
        "coordinates": [
          144.25942378415152,
          -23.24250112807493
        ]
      }
    },
    {
      "type": "Feature",
      "properties": {
        "norad_id": 30336,
        "name": "FENGYUN 1C DEB",
        "group": "fengyun-1c-debris",
        "lat": 65.8739916262968,
        "lon": -162.42311769745453,
        "alt_km": 812.8911140695327,
        "timestamp": "2025-12-02T13:52:17.537849+00:00",
        "meta_object_name": "FENGYUN 1C DEB",
        "meta_object_id": "1999-025AAX",
        "meta_epoch": "2025-12-02T01:48:35.906976",
        "meta_mean_motion": 14.19280222,
        "meta_eccentricity": 0.00440833,
        "meta_inclination": 98.6016,
        "meta_ra_of_asc_node": 357.3364,
        "meta_arg_of_pericenter": 39.1988,
        "meta_mean_anomaly": 26.5367,
        "meta_ephemeris_type": 0,
        "meta_classification_type": "U",
        "meta_norad_cat_id": 30336,
        "meta_element_set_no": 999,
        "meta_rev_at_epoch": 97451,
        "meta_bstar": 0.00039229065,
        "meta_mean_motion_dot": 7.89e-06,
        "meta_mean_motion_ddot": 0,
        "tle_line1": "1 30336U 99025AAX 25336.07541559  .00000789  00000+0  39229-3 0  9996",
        "tle_line2": "2 30336  98.6016 357.3364 0044083  39.1988  26.5367 14.19280222974511"
      },
      "geometry": {
        "type": "Point",
        "coordinates": [
          -162.42311769745453,
          65.8739916262968
        ]
      }
    },
    {
      "type": "Feature",
      "properties": {
        "norad_id": 30338,
        "name": "FENGYUN 1C DEB",
        "group": "fengyun-1c-debris",
        "lat": -5.399441947814489,
        "lon": -134.53086613708436,
        "alt_km": 586.5177563801935,
        "timestamp": "2025-12-02T13:52:17.537859+00:00",
        "meta_object_name": "FENGYUN 1C DEB",
        "meta_object_id": "1999-025AAZ",
        "meta_epoch": "2025-12-02T04:48:33.873120",
        "meta_mean_motion": 14.47297513,
        "meta_eccentricity": 0.02721244,
        "meta_inclination": 98.4611,
        "meta_ra_of_asc_node": 45.8973,
        "meta_arg_of_pericenter": 225.9196,
        "meta_mean_anomaly": 155.1707,
        "meta_ephemeris_type": 0,
        "meta_classification_type": "U",
        "meta_norad_cat_id": 30338,
        "meta_element_set_no": 999,
        "meta_rev_at_epoch": 97992,
        "meta_bstar": 0.0015249934,
        "meta_mean_motion_dot": 8.852e-05,
        "meta_mean_motion_ddot": 0,
        "tle_line1": "1 30338U 99025AAZ 25336.20039205  .00008852  00000+0  15250-2 0  9999",
        "tle_line2": "2 30338  98.4611  45.8973 0272124 225.9196 155.1707 14.47297513979921"
      },
      "geometry": {
        "type": "Point",
        "coordinates": [
          -134.53086613708436,
          -5.399441947814489
        ]
      }
    },
    {
      "type": "Feature",
      "properties": {
        "norad_id": 30339,
        "name": "FENGYUN 1C DEB",
        "group": "fengyun-1c-debris",
        "lat": 32.76187100892013,
        "lon": 76.72076605266712,
        "alt_km": 761.2147109849293,
        "timestamp": "2025-12-02T13:52:17.537869+00:00",
        "meta_object_name": "FENGYUN 1C DEB",
        "meta_object_id": "1999-025ABA",
        "meta_epoch": "2025-12-02T05:38:42.616608",
        "meta_mean_motion": 14.37884779,
        "meta_eccentricity": 0.00223462,
        "meta_inclination": 98.9742,
        "meta_ra_of_asc_node": 82.1996,
        "meta_arg_of_pericenter": 116.3849,
        "meta_mean_anomaly": 303.9021,
        "meta_ephemeris_type": 0,
        "meta_classification_type": "U",
        "meta_norad_cat_id": 30339,
        "meta_element_set_no": 999,
        "meta_rev_at_epoch": 97276,
        "meta_bstar": 0.0032121834,
        "meta_mean_motion_dot": 9.687e-05,
        "meta_mean_motion_ddot": 0,
        "tle_line1": "1 30339U 99025ABA 25336.23521547  .00009687  00000+0  32122-2 0  9992",
        "tle_line2": "2 30339  98.9742  82.1996 0022346 116.3849 303.9021 14.37884779972760"
      },
      "geometry": {
        "type": "Point",
        "coordinates": [
          76.72076605266712,
          32.76187100892013
        ]
      }
    }
  ]
}